{"type": "FeatureCollection", "features": [ {"type": "Feature", "properties": {"norad_id": 66645, "name": "SHENZHOU-22", "group": "last-30-days", "lat": 24.96596563016192, "lon": 89.43371701140603, "alt_km": 379.01186267781577, "timestamp": "2025-12-25T03:55:54.952154+00:00", "meta": {"OBJECT_NAME": "SHENZHOU-22", "OBJECT_ID": "2025-272A", "EPOCH": "2025-12-24T05:49:05.894976", "MEAN_MOTION": 15.59630763, "ECCENTRICITY": 0.00081096, "INCLINATION": 41.4687, "RA_OF_ASC_NODE": 306.8504, "ARG_OF_PERICENTER": 132.6319, "MEAN_ANOMALY": 227.5205, "EPHEMERIS_TYPE": 0, "CLASSIFICATION_TYPE": "U", "NORAD_CAT_ID": 66645, "ELEMENT_SET_NO": 999, "REV_AT_EPOCH": 26550, "BSTAR": 0.00022952509, "MEAN_MOTION_DOT": 0.00018555, "MEAN_MOTION_DDOT": 0}, "tle": {"line1": "1 66645U 25272A   25358.24242934  .00018555  00000+0  22953-3 0  9995", "line2": "2 66645  41.4687 306.8504 0008109 132.6319 227.5205 15.59630763265504"}}, "geometry": {"type": "Point", "coordinates": [89.43371701140603, 24.96596563016192]}}, {"type": "Feature", "properties": {"norad_id": 66647, "name": "COSMOS 2597 (RODNIK-S 22)", "group": "last-30-days", "lat": -10.274417687038857, "lon": 100.10307302791922, "alt_km": 1499.9092339807657, "timestamp": "2025-12-25T03:55:54.952164+00:00", "meta": {"OBJECT_NAME": "COSMOS 2597 (RODNIK-S 22)", "OBJECT_ID": "2025-273A", "EPOCH": "2025-12-24T19:10:34.756032", "MEAN_MOTION": 12.41952268, "ECCENTRICITY": 0.0007595, "INCLINATION": 82.4994, "RA_OF_ASC_NODE": 278.9612, "ARG_OF_PERICENTER": 257.7264, "MEAN_ANOMALY": 102.2965, "EPHEMERIS_TYPE": 0, "CLASSIFICATION_TYPE": "U", "NORAD_CAT_ID": 66647, "ELEMENT_SET_NO": 999, "REV_AT_EPOCH": 363, "BSTAR": 0.00026454, "MEAN_MOTION_DOT": 4.6e-07, "MEAN_MOTION_DDOT": 0}, "tle": {"line1": "1 66647U 25273A   25358.79901338  .00000046  00000+0  26454-3 0  9994", "line2": "2 66647  82.4994 278.9612 0007595 257.7264 102.2965 12.41952268  3638"}}, "geometry": {"type": "Point", "coordinates": [100.10307302791922, -10.274417687038857]}}, {"type": "Feature", "properties": {"norad_id": 66648, "name": "COSMOS 2598 (RODNIK-S 23)", "group": "last-30-days", "lat": -74.71398630021994, "lon": -110.07915938493964, "alt_km": 1498.6920136882782, "timestamp": "2025-12-25T03:55:54.952175+00:00", "meta": {"OBJECT_NAME": "COSMOS 2598 (RODNIK-S 23)", "OBJECT_ID": "2025-273B", "EPOCH": "2025-12-24T20:37:05.649888", "MEAN_MOTION": 12.43233613, "ECCENTRICITY": 0.000819, "INCLINATION": 82.5032, "RA_OF_ASC_NODE": 278.9102, "ARG_OF_PERICENTER": 207.9473, "MEAN_ANOMALY": 152.1168, "EPHEMERIS_TYPE": 0, "CLASSIFICATION_TYPE": "U", "NORAD_CAT_ID": 66648, "ELEMENT_SET_NO": 999, "REV_AT_EPOCH": 364, "BSTAR": 0.00018088, "MEAN_MOTION_DOT": 3.5e-07, "MEAN_MOTION_DDOT": 0}, "tle": {"line1": "1 66648U 25273B   25358.85909317  .00000035  00000+0  18088-3 0  9999", "line2": "2 66648  82.5032 278.9102 0008190 207.9473 152.1168 12.43233613  3646"}}, "geometry": {"type": "Point", "coordinates": [-110.07915938493964, -74.71398630021994]}}, {"type": "Feature", "properties": {"norad_id": 66649, "name": "COSMOS 2599 (RODNIK-S 24)", "group": "last-30-days", "lat": 43.60380581981565, "lon": 91.5677634521264, "alt_km": 1499.566573558891, "timestamp": "2025-12-25T03:55:54.952199+00:00", "meta": {"OBJECT_NAME": "COSMOS 2599 (RODNIK-S 24)", "OBJECT_ID": "2025-273C", "EPOCH": "2025-12-24T19:27:47.568672", "MEAN_MOTION": 12.41152337, "ECCENTRICITY": 0.0006343, "INCLINATION": 82.5051, "RA_OF_ASC_NODE": 278.9883, "ARG_OF_PERICENTER": 245.7233, "MEAN_ANOMALY": 114.3184, "EPHEMERIS_TYPE": 0, "CLASSIFICATION_TYPE": "U", "NORAD_CAT_ID": 66649, "ELEMENT_SET_NO": 999, "REV_AT_EPOCH": 363, "BSTAR": 0.00043347, "MEAN_MOTION_DOT": 6.8e-07, "MEAN_MOTION_DDOT": 0}, "tle": {"line1": "1 66649U 25273C   25358.81096723  .00000068  00000+0  43347-3 0  9996", "line2": "2 66649  82.5051 278.9883 0006343 245.7233 114.3184 12.41152337  3634"}}, "geometry": {"type": "Point", "coordinates": [91.5677634521264, 43.60380581981565]}}, {"type": "Feature", "properties": {"norad_id": 66650, "name": "BEE-1000", "group": "last-30-days", "lat": 8.560424613501006, "lon": -75.04898875489735, "alt_km": 601.8660106542038, "timestamp": "2025-12-25T03:55:54.952218+00:00", "meta": {"OBJECT_NAME": "BEE-1000", "OBJECT_ID": "2025-274A", "EPOCH": "2025-12-24T18:14:01.823712", "MEAN_MOTION": 14.91700346, "ECCENTRICITY": 0.0011078, "INCLINATION": 97.7405, "RA_OF_ASC_NODE": 285.7275, "ARG_OF_PERICENTER": 207.2837, "MEAN_ANOMALY": 152.7801, "EPHEMERIS_TYPE": 0, "CLASSIFICATION_TYPE": "U", "NORAD_CAT_ID": 66650, "ELEMENT_SET_NO": 999, "REV_AT_EPOCH": 419, "BSTAR": 0.00017291, "MEAN_MOTION_DOT": 1.685e-05, "MEAN_MOTION_DDOT": 0}, "tle": {"line1": "1 66650U 25274A   25358.75974333  .00001685  00000+0  17291-3 0  9999", "line2": "2 66650  97.7405 285.7275 0011078 207.2837 152.7801 14.91700346  4192"}}, "geometry": {"type": "Point", "coordinates": [-75.04898875489735, 8.560424613501006]}}, {"type": "Feature", "properties": {"norad_id": 66651, "name": "2025-274B", "group": "last-30-days", "lat": 20.506267525088546, "lon": -76.78822333604168, "alt_km": 599.9377033327191, "timestamp": "2025-12-25T03:55:54.952230+00:00", "meta": {"OBJECT_NAME": "2025-274B", "OBJECT_ID": "2025-274B", "EPOCH": "2025-12-24T18:10:51.621024", "MEAN_MOTION": 14.91882625, "ECCENTRICITY": 0.0011275, "INCLINATION": 97.7402, "RA_OF_ASC_NODE": 285.7287, "ARG_OF_PERICENTER": 205.3112, "MEAN_ANOMALY": 154.7556, "EPHEMERIS_TYPE": 0, "CLASSIFICATION_TYPE": "U", "NORAD_CAT_ID": 66651, "ELEMENT_SET_NO": 999, "REV_AT_EPOCH": 419, "BSTAR": 0.00044643, "MEAN_MOTION_DOT": 4.462e-05, "MEAN_MOTION_DDOT": 0}, "tle": {"line1": "1 66651U 25274B   25358.75754191  .00004462  00000+0  44643-3 0  9995", "line2": "2 66651  97.7402 285.7287 0011275 205.3112 154.7556 14.91882625  4197"}}, "geometry": {"type": "Point", "coordinates": [-76.78822333604168, 20.506267525088546]}}, {"type": "Feature", "properties": {"norad_id": 66652, "name": "2025-274C", "group": "last-30-days", "lat": 32.277940437458696, "lon": -78.79432572576897, "alt_km": 597.4780466799793, "timestamp": "2025-12-25T03:55:54.952240+00:00", "meta": {"OBJECT_NAME": "2025-274C", "OBJECT_ID": "2025-274C", "EPOCH": "2025-12-24T18:07:41.820096", "MEAN_MOTION": 14.91968899, "ECCENTRICITY": 0.0010824, "INCLINATION": 97.7406, "RA_OF_ASC_NODE": 285.7331, "ARG_OF_PERICENTER": 212.2787, "MEAN_ANOMALY": 147.777, "EPHEMERIS_TYPE": 0, "CLASSIFICATION_TYPE": "U", "NORAD_CAT_ID": 66652, "ELEMENT_SET_NO": 999, "REV_AT_EPOCH": 419, "BSTAR": 0.00035722, "MEAN_MOTION_DOT": 3.566e-05, "MEAN_MOTION_DDOT": 0}, "tle": {"line1": "1 66652U 25274C   25358.75534514  .00003566  00000+0  35722-3 0  9993", "line2": "2 66652  97.7406 285.7331 0010824 212.2787 147.7770 14.91968899  4194"}}, "geometry": {"type": "Point", "coordinates": [-78.79432572576897, 32.277940437458696]}}, {"type": "Feature", "properties": {"norad_id": 66653, "name": "2025-274D", "group": "last-30-days", "lat": 32.63020845203341, "lon": -78.86202040710064, "alt_km": 598.092850404646, "timestamp": "2025-12-25T03:55:54.952250+00:00", "meta": {"OBJECT_NAME": "2025-274D", "OBJECT_ID": "2025-274D", "EPOCH": "2025-12-24T16:31:01.121952", "MEAN_MOTION": 14.91960276, "ECCENTRICITY": 0.0011798, "INCLINATION": 97.7404, "RA_OF_ASC_NODE": 285.6669, "ARG_OF_PERICENTER": 209.0619, "MEAN_ANOMALY": 150.9944, "EPHEMERIS_TYPE": 0, "CLASSIFICATION_TYPE": "U", "NORAD_CAT_ID": 66653, "ELEMENT_SET_NO": 999, "REV_AT_EPOCH": 418, "BSTAR": 0.00028251, "MEAN_MOTION_DOT": 2.808e-05, "MEAN_MOTION_DDOT": 0}, "tle": {"line1": "1 66653U 25274D   25358.68820743  .00002808  00000+0  28251-3 0  9995", "line2": "2 66653  97.7404 285.6669 0011798 209.0619 150.9944 14.91960276  4184"}}, "geometry": {"type": "Point", "coordinates": [-78.86202040710064, 32.63020845203341]}}, {"type": "Feature", "properties": {"norad_id": 66654, "name": "JACK E", "group": "last-30-days", "lat": 50.07722882386179, "lon": -83.21235381246291, "alt_km": 594.6965396839487, "timestamp": "2025-12-25T03:55:54.952260+00:00", "meta": {"OBJECT_NAME": "JACK E", "OBJECT_ID": "2025-274E", "EPOCH": "2025-12-24T18:02:54.224736", "MEAN_MOTION": 14.92145047, "ECCENTRICITY": 0.0012343, "INCLINATION": 97.7407, "RA_OF_ASC_NODE": 285.7379, "ARG_OF_PERICENTER": 210.6916, "MEAN_ANOMALY": 149.3582, "EPHEMERIS_TYPE": 0, "CLASSIFICATION_TYPE": "U", "NORAD_CAT_ID": 66654, "ELEMENT_SET_NO": 999, "REV_AT_EPOCH": 419, "BSTAR": 0.00032281, "MEAN_MOTION_DOT": 3.233e-05, "MEAN_MOTION_DDOT": 0}, "tle": {"line1": "1 66654U 25274E   25358.75201649  .00003233  00000+0  32281-3 0  9993", "line2": "2 66654  97.7407 285.7379 0012343 210.6916 149.3582 14.92145047  4195"}}, "geometry": {"type": "Point", "coordinates": [-83.21235381246291, 50.07722882386179]}}, {"type": "Feature", "properties": {"norad_id": 66655, "name": "2025-274F", "group": "last-30-days", "lat": 11.884559372214484, "lon": -75.52169173433361, "alt_km": 592.9040160040768, "timestamp": "2025-12-25T03:55:54.952270+00:00", "meta": {"OBJECT_NAME": "2025-274F", "OBJECT_ID": "2025-274F", "EPOCH": "2025-12-24T06:56:33.276192", "MEAN_MOTION": 14.911933, "ECCENTRICITY": 0.00044335, "INCLINATION": 97.7344, "RA_OF_ASC_NODE": 285.2601, "ARG_OF_PERICENTER": 344.9357, "MEAN_ANOMALY": 15.1729, "EPHEMERIS_TYPE": 0, "CLASSIFICATION_TYPE": "U", "NORAD_CAT_ID": 66655, "ELEMENT_SET_NO": 999, "REV_AT_EPOCH": 412, "BSTAR": 1.9529297e-05, "MEAN_MOTION_DOT": 1.39e-06, "MEAN_MOTION_DDOT": 0}, "tle": {"line1": "1 66655U 25274F   25358.28927403  .00000139  00000+0  19529-4 0  9998", "line2": "2 66655  97.7344 285.2601 0004433 344.9357  15.1729 14.91193300  4120"}}, "geometry": {"type": "Point", "coordinates": [-75.52169173433361, 11.884559372214484]}}]}